SKYKRAFT-1A             
1 55054U 23001AX  26068.71064616  .00008177  00000+0  30069-3 0  9991
2 55054  97.3349 127.6290 0011277 121.5092 238.7251 15.28083228176529
STARLINK-33820          
1 63584U 25076R   26068.08866065  .00027992  00000+0  10225-2 0  9997
2 63584  42.9942 324.6421 0001772 222.3018 137.7697 15.27591550 51742
